TITAN 4B R/B            
1 26474U 00047B   22160.35568911  .00000816  00000+0  79944-4 0  9994
2 26474  67.9933 247.8009 0051294 126.8821 233.7040 14.96828605187230
ENVISAT                 
1 27386U 02009A   22160.47413130  .00000089  00000+0  42898-4 0  9992
2 27386  98.1830 141.9561 0001297  88.9625  78.8527 14.38129375 62313
IDEFIX & ARIANE 42P R/B 
1 27422U 02021B   22160.25732969  .00000085  00000+0  50072-4 0  9996
2 27422  98.4493 106.5002 0010902 260.7823  99.2126 14.29416064 48288
AQUA                    
1 27424U 02022A   22160.53382689  .00000327  00000+0  82340-4 0  9992
2 27424  98.2475 102.4992 0000874  80.5116   7.8516 14.57293122 69034
CZ-4B R/B               
1 27432U 02024C   22160.47861876  .00000010  00000+0  29093-4 0  9991
2 27432  99.0618 185.4744 0049442 299.9089 196.7908 14.14141269 35691
MIDORI II (ADEOS-II)    
1 27597U 02056A   22160.55503395  .00000090  00000+0  54076-4 0  9993
2 27597  98.6067 104.5462 0002062  64.1736 295.9658 14.27610900 14848
H-2A R/B                
1 27601U 02056E   22160.46967712  .00000060  00000+0  36750-4 0  9992
2 27601  98.1763 167.5710 0070669 285.4571 238.6087 14.32073738 18033
CZ-4B R/B               
1 28059U 03049C   22160.31666222  .00000152  00000+0  48004-4 0  9996
2 28059  98.5203  96.9937 0051248  92.1300 268.5765 14.52783819987631
CZ-2C R/B               
1 28222U 04012C   22160.41858170  .00002419  00000+0  13928-3 0  9999
2 28222  97.7707 141.1119 0046872  80.4650  78.2240 15.12522810995017
SL-16 R/B               
1 28353U 04021B   22160.43254098  .00000313  00000+0  18901-3 0  9992
2 28353  71.0003 225.1037 0006477 304.8680  55.1833 14.14266132929215
CZ-4B R/B               
1 28415U 04035C   22160.49147122  .00001315  00000+0  86933-4 0  9995
2 28415  97.5165 201.1186 0051396  48.4268 312.1349 15.08067937972399
CZ-2C R/B               
1 28480U 04046B   22160.40113677  .00000056  00000+0  36660-4 0  9991
2 28480  98.0640 148.7930 0140467 245.9113 112.7321 14.25830971913291
ARIANE 5 R/B            
1 28499U 04049H   22160.55493071  .00000416  00000+0  57877-4 0  9992
2 28499  98.0964 277.2282 0092886  99.9308 272.0863 14.80417359942916
CZ-2D R/B               
1 28738U 05024B   22160.47569878  .00001999  00000+0  11420-3 0  9992
2 28738  97.3513 168.8721 0010791 196.6666 163.4212 15.13785853930545
SUZAKU (ASTRO-EII)      
1 28773U 05025A   22160.23780400  .00004342  00000+0  18644-3 0  9992
2 28773  31.3812 355.6495 0004277 288.3038  71.7145 15.21038735933775
ALOS (DAICHI)           
1 28931U 06002A   22160.44469628  .00000407  00000+0  87881-4 0  9991
2 28931  97.9359 125.6011 0001681  39.9149 320.2168 14.63181432873254
H-2A R/B                
1 28932U 06002B   22160.55570785  .00001491  00000+0  13752-3 0  9990
2 28932  98.2917 202.6098 0088004 117.5634 243.4558 14.93481523888865
AKARI (ASTRO-F)         
1 28939U 06005A   22160.16480404  .00012691  00000+0  24052-3 0  9994
2 28939  98.1962 232.4171 0068977 305.5503  53.9325 15.45874889891808
RESURS-DK 1             
1 29228U 06021A   22160.43254617  .00000709  00000+0  59535-4 0  9991
2 29228  69.9337 149.4578 0001647  45.0255 315.1039 15.03220812881170
GENESIS 1               
1 29252U 06029A   22160.37336915  .00002709  00000+0  12702-3 0  9997
2 29252  64.5213  97.6328 0059238 263.6403  95.7973 15.20620688877740
CZ-4B R/B               
1 29507U 06046C   22160.47661309  .00000818  00000+0  66356-4 0  9992
2 29507  97.7317 190.6082 0044571 254.5739 105.0560 15.01784231853679
CZ-2C R/B               
1 31114U 07010B   22160.51875705  .00000101  00000+0  65770-4 0  9997
2 31114  98.2403 334.1937 0058874 322.0753  37.6285 14.19432751785437
COSMO-SKYMED 1          
1 31598U 07023A   22160.57061431  .00000119  00000+0  21487-4 0  9992
2 31598  97.8888 344.3466 0001425  94.1994 265.9376 14.82152687811792
GENESIS 2               
1 31789U 07028A   22160.37416667  .00002923  00000+0  14292-3 0  9992
2 31789  64.4945 140.7889 0047389 316.3721  43.3659 15.19508261824678
COSMOS 2428             
1 31792U 07029A   22160.48779415  .00000311  00000+0  19371-3 0  9994
2 31792  70.9461 196.4866 0004736  55.2055 304.9511 14.12558134770723
SL-16 R/B               
1 31793U 07029B   22160.48732565 -.00000283  00000+0 -12243-3 0  9991
2 31793  70.9740 169.5983 0002970 271.0461 250.6634 14.14475939771730
KORONAS-FOTON           
1 33504U 09003A   22160.48225301  .00001534  00000+0  75475-4 0  9997
2 33504  82.4420 223.8606 0016882 301.0036  58.9538 15.17161892736759
H-2A R/B                
1 38341U 12025E   22160.32002312  .00000655  00000+0  82627-4 0  9997
2 38341  98.5063  15.0493 0056059  73.3270 287.4086 14.84706742544440
CUSAT 2 & FALCON 9 R/B  
1 39271U 13055G   22160.53175045  .00019270  00000+0  41590-3 0  9997
2 39271  80.9576 203.8884 0531924 141.3048 222.7553 14.62249436455615
CZ-2C R/B               
1 39364U 13059B   22160.57764688  .00005225  00000+0  17037-3 0  9999
2 39364  97.1608 214.1699 0042469   2.8600 357.2876 15.31346759479003
SL-4 R/B                
1 39679U 14021B   22160.55662458  .00000898  00000+0  58808-4 0  9991
2 39679  51.6173 352.7404 0164569 290.9382  67.4044 15.08628393447924
ALOS-2                  
1 39766U 14029A   22160.49183294  .00000025  00000+0  10236-4 0  9990
2 39766  97.9207 257.7342 0001561  88.7301 271.4089 14.79471103434455
CZ-2C R/B               
1 40306U 14071B   22160.36412300  .00027870  00000+0  32249-3 0  9992
2 40306  97.4170 133.6376 0012409  56.6373 303.6071 15.61731938425632
SL-27 R/B               
1 40354U 14084B   22160.51234001  .00004692  00000+0  10248-3 0  9998
2 40354  74.7375 331.7460 0034350 156.5104 203.7689 15.43802487419373
YAOGAN-29               
1 41038U 15069A   22160.44231133  .00000176  00000+0  29719-4 0  9994
2 41038  98.0551 160.5948 0002248 102.4384 257.7085 14.80863431353101
ASTRO-H (HITOMI)        
1 41337U 16012A   22160.54355180  .00000957  00000+0  69469-4 0  9998
2 41337  31.0046 109.9187 0012137   8.2054 351.8778 14.99392455345936
HXMT (HUIYAN)           
1 42758U 17034A   22160.36202160  .00001488  00000+0  10221-3 0  9991
2 42758  43.0184  32.8316 0009442 237.4624 291.7485 15.10413514274956
CZ-2C R/B               
1 43521U 18054D   22160.35504138  .00002734  00000+0  14197-3 0  9993
2 43521  35.1539  46.5523 0079121  10.6697 349.5677 15.13101046218450
AEOLUS                  
1 43600U 18066A   22159.85863662  .00067179  00000+0  26098-3 0  9994
2 43600  96.7025 165.9167 0009003  92.1654 268.0650 15.86911213219767
SAOCOM 1A               
1 43641U 18076A   22160.51151838  .00000133  00000+0  23243-4 0  9997
2 43641  97.8885 347.3238 0001386  79.8360 280.3014 14.82155088198554
SAOCOM 1B               
1 46265U 20059A   22160.54274829  .00000107  00000+0  20058-4 0  9997
2 46265  97.8878 346.4283 0001435  84.3876 275.7513 14.82148461 95958
TIANHE                  
1 48274U 21035A   22160.46731235  .00005437  00000+0  69427-4 0  9998
2 48274  41.4720 265.8641 0004829 244.2414 213.5059 15.59975547 63563
